0 FENGYUN 1C DEB
1 31457U 99025BUV 13283.83509410  .00010312  00000-0  13522-2 0  5361
2 31457 099.0610 141.2135 0232810 164.7856 257.9931 14.63359336346784
0 FENGYUN 1C DEB
1 31457U 99025BUV 13284.86173735  .00008489  00000-0  11134-2 0  5372
2 31457 099.0603 142.3418 0233169 161.5447 266.5868 14.63373283346930
0 FENGYUN 1C DEB
1 31457U 99025BUV 13286.84397344  .00007397  00000-0  97120-3 0  5384
2 31457 099.0598 144.5208 0233056 155.5169 269.3658 14.63403128347226
0 FENGYUN 1C DEB
1 31457U 99025BUV 13290.41090975  .00012049  00000-0  15766-2 0  5398
2 31457 099.0606 148.4453 0232221 144.5493 341.3892 14.63468726347745
0 FENGYUN 1C DEB
1 31457U 99025BUV 13292.46083398  .00009216  00000-0  12051-2 0  5404
2 31457 099.0586 150.6940 0232802 138.1414 341.6810 14.63505093348041
0 FENGYUN 1C DEB
1 31457U 99025BUV 13294.84315109  .00008950  00000-0  11697-2 0  5416
2 31457 099.0596 153.3125 0232749 130.9602 293.2707 14.63541841348392
